CCSDS_OMM_VERS,COMMENT,CREATION_DATE,ORIGINATOR,OBJECT_NAME,OBJECT_ID,CENTER_NAME,REF_FRAME,TIME_SYSTEM,MEAN_ELEMENT_THEORY,EPOCH,MEAN_MOTION,ECCENTRICITY,INCLINATION,RA_OF_ASC_NODE,ARG_OF_PERICENTER,MEAN_ANOMALY,EPHEMERIS_TYPE,CLASSIFICATION_TYPE,NORAD_CAT_ID,ELEMENT_SET_NO,REV_AT_EPOCH,BSTAR,MEAN_MOTION_DOT,MEAN_MOTION_DDOT,SEMIMAJOR_AXIS,PERIOD,APOAPSIS,PERIAPSIS,OBJECT_TYPE,RCS_SIZE,COUNTRY_CODE,LAUNCH_DATE,SITE,DECAY_DATE,FILE,GP_ID,TLE_LINE0,TLE_LINE1,TLE_LINE2
2,GENERATED VIA SPACE-TRACK.ORG API,2004-05-28T18:55:59,18 SPCS,JCSAT 2,1990-001B,EARTH,TEME,UTC,SGP4,2002-03-02T12:50:22.499232,1.00270807,0.0006489,0.0102,226.7638,58.5824,221.4128,0,U,20402,999,2787,0.0001,-1.82e-06,0,42165.033,1436.11,35814.258,35759.537,PAYLOAD,MEDIUM,JPN,1990-01-01,AFETR,,6564,2263002,0 JCSAT 2,1 20402U 90001B   02061.53498263 -.00000182 +00000-0 +10000-3 0  9993,2 20402 000.0102 226.7638 0006489 058.5824 221.4128 01.00270807027875
2,GENERATED VIA SPACE-TRACK.ORG API,2004-05-28T18:56:02,18 SPCS,JCSAT 2,1990-001B,EARTH,TEME,UTC,SGP4,2002-03-04T12:56:46.562783,1.00270151,0.0002457,0.0209,277.9447,99.7867,132.5267,0,U,20402,999,2789,0.0001,-1.83e-06,0,42165.216,1436.12,35797.441,35776.721,PAYLOAD,MEDIUM,JPN,1990-01-01,AFETR,,6565,2270134,0 JCSAT 2,1 20402U 90001B   02063.53942781 -.00000183 +00000-0 +10000-3 0  9995,2 20402 000.0209 277.9447 0002457 099.7867 132.5267 01.00270151027894
2,GENERATED VIA SPACE-TRACK.ORG API,2004-05-28T18:56:17,18 SPCS,JCSAT 2,1990-001B,EARTH,TEME,UTC,SGP4,2002-03-08T14:50:25.497887,1.00272241,0.0002119,0.0616,332.001,77.9544,132.7608,0,U,20402,999,2793,0.0001,-1.84e-06,0,42164.631,1436.09,35795.43,35777.561,PAYLOAD,MEDIUM,JPN,1990-01-01,AFETR,,6570,2298791,0 JCSAT 2,1 20402U 90001B   02067.61835067 -.00000184 +00000-0 +10000-3 0  9997,2 20402 000.0616 332.0010 0002119 077.9544 132.7608 01.00272241027938
2,GENERATED VIA SPACE-TRACK.ORG API,2004-05-28T18:56:32,18 SPCS,JCSAT 2,1990-001B,EARTH,TEME,UTC,SGP4,2002-03-11T14:52:05.192255,1.00272248,0.0002299,0.0062,206.841,175.3158,163.949,0,U,20402,999,2796,0.0001,-1.81e-06,0,42164.629,1436.09,35796.187,35776.8,PAYLOAD,MEDIUM,JPN,1990-01-01,AFETR,,6575,2333801,0 JCSAT 2,1 20402U 90001B   02070.61950454 -.00000181 +00000-0 +10000-3 0  9996,2 20402 000.0062 206.8410 0002299 175.3158 163.9490 01.00272248027963
2,GENERATED VIA SPACE-TRACK.ORG API,2004-05-28T18:56:41,18 SPCS,JCSAT 2,1990-001B,EARTH,TEME,UTC,SGP4,2002-03-15T15:06:15.775200,1.00272024,0.0001832,0.0034,221.3309,144.2534,188.0348,0,U,20402,999,2800,0.0001,-1.7e-06,0,42164.691,1436.093,35794.281,35778.832,PAYLOAD,MEDIUM,JPN,1990-01-01,AFETR,,6578,2354857,0 JCSAT 2,1 20402U 90001B   02074.62934925 -.00000170 +00000-0 +10000-3 0  9994,2 20402 000.0034 221.3309 0001832 144.2534 188.0348 01.00272024028004
2,GENERATED VIA SPACE-TRACK.ORG API,2004-05-28T18:57:17,18 SPCS,JCSAT 2,1990-001B,EARTH,TEME,UTC,SGP4,2002-03-25T12:32:46.475231,1.00270919,0.0002326,0.0097,174.7764,206.4138,143.8018,0,U,20402,999,2810,0.0001,-1.79e-06,0,42165.001,1436.109,35796.674,35777.059,PAYLOAD,MEDIUM,JPN,1990-01-01,AFETR,,6590,2417235,0 JCSAT 2,1 20402U 90001B   02084.52276013 -.00000179 +00000-0 +10000-3 0  9990,2 20402 000.0097 174.7764 0002326 206.4138 143.8018 01.00270919028104
2,GENERATED VIA SPACE-TRACK.ORG API,2004-08-17T15:30:06,18 SPCS,JCSAT 2,1990-001B,EARTH,TEME,UTC,SGP4,2002-03-28T01:25:21.634752,1.00267258,0.0006024,0.0314,5.6539,64.3829,290.5396,0,U,20402,999,2812,0.0001,0.0,0,42166.028,1436.161,35813.293,35762.492,PAYLOAD,MEDIUM,JPN,1990-01-01,AFETR,,35651,37353251,0 JCSAT 2,1 20402U 90001B   02087.05927818  .00000000  00000-0  10000-3 0  9999,2 20402 000.0314 005.6539 0006024 064.3829 290.5396 01.00267258 28128
2,GENERATED VIA SPACE-TRACK.ORG API,2004-05-28T18:58:35,18 SPCS,JCSAT 2,1990-001B,EARTH,TEME,UTC,SGP4,2002-03-29T12:44:46.478399,1.00271794,0.0003002,0.0025,228.5226,165.0534,138.3639,0,U,20402,999,2814,0.0001,-1.83e-06,0,42164.756,1436.096,35799.279,35773.963,PAYLOAD,MEDIUM,JPN,1990-01-01,AFETR,,6616,2444594,0 JCSAT 2,1 20402U 90001B   02088.53109350 -.00000183 +00000-0 +10000-3 0  9999,2 20402 000.0025 228.5226 0003002 165.0534 138.3639 01.00271794028142
2,GENERATED VIA SPACE-TRACK.ORG API,2004-05-28T18:59:38,18 SPCS,JCSAT 2,1990-001B,EARTH,TEME,UTC,SGP4,2002-04-01T12:54:39.850271,1.00270202,0.0001685,0.0083,358.6827,10.2891,168.4032,0,U,20402,999,2817,0.0001,-1.83e-06,0,42165.202,1436.119,35794.172,35779.962,PAYLOAD,MEDIUM,JPN,1990-01-01,AFETR,,6637,2465049,0 JCSAT 2,1 20402U 90001B   02091.53796123 -.00000183 +00000-0 +10000-3 0  9993,2 20402 000.0083 358.6827 0001685 010.2891 168.4032 01.00270202028177
2,GENERATED VIA SPACE-TRACK.ORG API,2004-08-17T15:30:09,18 SPCS,JCSAT 2,1990-001B,EARTH,TEME,UTC,SGP4,2002-04-04T12:21:54.819648,1.00267386,0.0008686,0.0357,154.6743,103.9206,273.6171,0,U,20402,999,2820,0.0001,0.0,0,42165.992,1436.159,35824.482,35751.231,PAYLOAD,MEDIUM,JPN,1990-01-01,AFETR,,35652,37367116,0 JCSAT 2,1 20402U 90001B   02094.51521782  .00000000  00000-0  10000-3 0  9998,2 20402 000.0357 154.6743 0008686 103.9206 273.6171 01.00267386 28206
2,GENERATED VIA SPACE-TRACK.ORG API,2004-05-28T19:00:23,18 SPCS,JCSAT 2,1990-001B,EARTH,TEME,UTC,SGP4,2002-04-04T12:55:02.213184,1.00270778,0.0006312,0.021,149.6698,98.1657,292.6751,0,U,20402,999,2820,0.0001,-1.83e-06,0,42165.041,1436.111,35813.52,35760.291,PAYLOAD,MEDIUM,JPN,1990-01-01,AFETR,,6652,2485947,0 JCSAT 2,1 20402U 90001B   02094.53822006 -.00000183 +00000-0 +10000-3 0  9996,2 20402 000.0210 149.6698 0006312 098.1657 292.6751 01.00270778028200
2,GENERATED VIA SPACE-TRACK.ORG API,2004-05-28T19:00:35,18 SPCS,JCSAT 2,1990-001B,EARTH,TEME,UTC,SGP4,2002-04-07T13:05:12.801119,1.00271628,0.0002644,0.0345,88.7166,312.5671,144.6555,0,U,20402,999,2823,0.0001,-1.81e-06,0,42164.802,1436.099,35797.816,35775.519,PAYLOAD,MEDIUM,JPN,1990-01-01,AFETR,,6656,2506881,0 JCSAT 2,1 20402U 90001B   02097.54528705 -.00000181 +00000-0 +10000-3 0  9997,2 20402 000.0345 088.7166 0002644 312.5671 144.6555 01.00271628028231
2,GENERATED VIA SPACE-TRACK.ORG API,2004-08-17T15:30:09,18 SPCS,JCSAT 2,1990-001B,EARTH,TEME,UTC,SGP4,2002-04-07T13:05:12.801119,1.00270366,0.0008182,0.0231,143.8229,99.7619,302.4395,0,U,20402,999,2823,0.0001,-1.8e-06,0,42165.156,1436.117,35821.521,35752.522,PAYLOAD,MEDIUM,JPN,1990-01-01,AFETR,,35652,37374402,0 JCSAT 2,1 20402U 90001B   02097.54528705 -.00000180  00000-0  10000-3 0  9996,2 20402 000.0231 143.8229 0008182 099.7619 302.4395 01.00270366 28231
2,GENERATED VIA SPACE-TRACK.ORG API,2004-05-28T19:00:38,18 SPCS,JCSAT 2,1990-001B,EARTH,TEME,UTC,SGP4,2002-04-09T13:11:12.892127,1.00271356,0.0002597,0.0395,88.3176,312.6219,148.4741,0,U,20402,999,2825,0.0001,-1.76e-06,0,42164.879,1436.103,35797.694,35775.793,PAYLOAD,MEDIUM,JPN,1990-01-01,AFETR,,6657,2513829,0 JCSAT 2,1 20402U 90001B   02099.54945477 -.00000176 +00000-0 +10000-3 0  9992,2 20402 000.0395 088.3176 0002597 312.6219 148.4741 01.00271356028258
2,GENERATED VIA SPACE-TRACK.ORG API,2004-05-28T19:00:50,18 SPCS,JCSAT 2,1990-001B,EARTH,TEME,UTC,SGP4,2002-04-12T13:12:28.486080,1.00270343,0.0003825,0.0464,49.2538,359.5297,143.8676,0,U,20402,999,2828,0.0001,-1.66e-06,0,42165.163,1436.117,35803.156,35770.899,PAYLOAD,MEDIUM,JPN,1990-01-01,AFETR,,6661,2534263,0 JCSAT 2,1 20402U 90001B   02102.55032970 -.00000166 +00000-0 +10000-3 0  9992,2 20402 000.0464 049.2538 0003825 359.5297 143.8676 01.00270343028288
2,GENERATED VIA SPACE-TRACK.ORG API,2004-05-28T19:01:05,18 SPCS,JCSAT 2,1990-001B,EARTH,TEME,UTC,SGP4,2002-04-17T11:56:49.476768,1.00270522,0.0003023,0.0523,49.1686,352.8236,136.6403,0,U,20402,999,2833,0.0001,-1.62e-06,0,42165.112,1436.114,35799.724,35774.231,PAYLOAD,MEDIUM,JPN,1990-01-01,AFETR,,6666,2568266,0 JCSAT 2,1 20402U 90001B   02107.49779487 -.00000162 +00000-0 +10000-3 0  9997,2 20402 000.0523 049.1686 0003023 352.8236 136.6403 01.00270522028339
2,GENERATED VIA SPACE-TRACK.ORG API,2004-05-28T19:01:17,18 SPCS,JCSAT 2,1990-001B,EARTH,TEME,UTC,SGP4,2002-04-20T12:05:49.466400,1.00270209,0.0008086,0.056,42.7368,8.0278,133.0217,0,U,20402,999,2836,0.0001,-1.71e-06,0,42165.2,1436.119,35821.16,35752.97,PAYLOAD,MEDIUM,JPN,1990-01-01,AFETR,,6670,2596052,0 JCSAT 2,1 20402U 90001B   02110.50404475 -.00000171 +00000-0 +10000-3 0  9995,2 20402 000.0560 042.7368 0008086 008.0278 133.0217 01.00270209028365
2,GENERATED VIA SPACE-TRACK.ORG API,2004-08-17T15:30:15,18 SPCS,JCSAT 2,1990-001B,EARTH,TEME,UTC,SGP4,2002-04-25T01:57:27.538272,1.00266585,0.0008045,0.0448,46.5372,8.7611,340.884,0,U,20402,999,2840,0.0001,0.0,0,42166.216,1436.171,35822.004,35754.159,PAYLOAD,MEDIUM,JPN,1990-01-01,AFETR,,35654,37416464,0 JCSAT 2,1 20402U 90001B   02115.08156873  .00000000  00000-0  10000-3 0  9999,2 20402 000.0448 046.5372 0008045 008.7611 340.8840 01.00266585 28407
2,GENERATED VIA SPACE-TRACK.ORG API,2004-05-28T19:01:29,18 SPCS,JCSAT 2,1990-001B,EARTH,TEME,UTC,SGP4,2002-04-25T12:22:46.473024,1.00271058,0.0002,0.0627,42.6696,8.1871,142.167,0,U,20402,999,2841,0.0001,-1.77e-06,0,42164.962,1436.107,35795.26,35778.394,PAYLOAD,MEDIUM,JPN,1990-01-01,AFETR,,6674,2624485,0 JCSAT 2,1 20402U 90001B   02115.51581566 -.00000177 +00000-0 +10000-3 0  9994,2 20402 000.0627 042.6696 0002000 008.1871 142.1670 01.00271058028415
2,GENERATED VIA SPACE-TRACK.ORG API,2004-05-28T19:01:32,18 SPCS,JCSAT 2,1990-001B,EARTH,TEME,UTC,SGP4,2002-04-26T18:56:10.249727,1.00270681,0.00017,0.013,166.6011,234.5066,251.5134,0,U,20402,999,2842,0.0001,-1.77e-06,0,42165.068,1436.112,35794.101,35779.765,PAYLOAD,MEDIUM,JPN,1990-01-01,AFETR,,6675,2631567,0 JCSAT 2,1 20402U 90001B   02116.78900752 -.00000177 +00000-0 +10000-3 0  9996,2 20402 000.0130 166.6011 0001700 234.5066 251.5134 01.00270681028421
